NORAD_CAT_ID,OBJECT_NAME,OBJECT_TYPE,EPOCH,MEAN_MOTION,ECCENTRICITY,INCLINATION,RA_OF_ASC_NODE,ARG_OF_PERICENTER,MEAN_ANOMALY,BSTAR,MEAN_MOTION_DOT,MEAN_MOTION_DDOT,TLE_LINE0,TLE_LINE1,TLE_LINE2,SEMIMAJOR_AXIS,PERIOD,APOGEE,PERIGEE,DECAYED
52269.0,STARLINK-3791,PAYLOAD,2023-06-20 05:23:54,15.08841484,0.0001028,53.2152,248.9582,73.9068,286.2037,5.0365e-05,5.14e-06,0.0,0 STARLINK-3791,1 52269U 22041J   23171.22493177  .00000514  00000-0  50365-4 0  9995,2 52269  53.2152 248.9582 0001028  73.9068 286.2037 15.08841484 65604,6917.876,95.437,540.452,539.03,0.0
52269.0,STARLINK-3791,PAYLOAD,2023-06-20 11:45:26,15.08844358,0.0001224,53.2157,247.7695,74.1453,285.9674,0.0001305,1.79e-05,0.0,0 STARLINK-3791,1 52269U 22041J   23171.48989235  .00001790  00000-0  13050-3 0  9994,2 52269  53.2157 247.7695 0001224  74.1453 285.9674 15.08844358 64425,6917.867,95.437,540.579,538.885,0.0
52269.0,STARLINK-3791,PAYLOAD,2023-06-21 10:00:50,15.08843117,0.0001101,53.2155,243.6062,70.8019,289.3092,0.00013388,1.844e-05,0.0,0 STARLINK-3791,1 52269U 22041J   23172.41725254  .00001844  00000-0  13388-3 0  9991,2 52269  53.2155 243.6062 0001101  70.8019 289.3092 15.08843117 65785,6917.871,95.437,540.498,538.974,0.0
52269.0,STARLINK-3791,PAYLOAD,2023-06-22 09:51:37,15.08837692,0.0001,53.217,239.1458,86.8853,273.2253,0.00011304,1.512e-05,0.0,0 STARLINK-3791,1 52269U 22041J   23173.41085479  .00001512  00000-0  11304-3 0  9998,2 52269  53.2170 239.1458 0001000  86.8853 273.2253 15.08837692 65931,6917.887,95.438,540.444,539.061,0.0
52269.0,STARLINK-3791,PAYLOAD,2023-06-23 14:28:33,15.08846779,0.0001008,53.2176,233.7934,86.7286,273.3822,0.00012226,1.659e-05,0.0,0 STARLINK-3791,1 52269U 22041J   23174.60316958  .00001659  00000-0  12226-3 0  9995,2 52269  53.2176 233.7934 0001008  86.7286 273.3822 15.08846779 66113,6917.86,95.437,540.422,539.027,0.0
52269.0,STARLINK-3791,PAYLOAD,2023-06-23 20:50:06,15.08840557,8.43e-05,53.2169,232.6031,85.1652,274.9436,8.3173e-05,1.036e-05,0.0,0 STARLINK-3791,1 52269U 22041J   23174.86813432  .00001036  00000-0  83173-4 0  9991,2 52269  53.2169 232.6031 0000843  85.1652 274.9436 15.08840557 66157,6917.879,95.438,540.327,539.161,0.0
52269.0,STARLINK-3791,PAYLOAD,2023-06-24 07:57:49,15.08836079,0.0001138,53.2173,230.5214,96.8754,263.2368,7.5037e-05,9.06e-06,0.0,0 STARLINK-3791,1 52269U 22041J   23175.33181918  .00000906  00000-0  75037-4 0  9996,2 52269  53.2173 230.5214 0001138  96.8754 263.2368 15.08836079 66229,6917.892,95.438,540.545,538.97,0.0
52269.0,STARLINK-3791,PAYLOAD,2023-06-25 09:23:58,15.08844291,0.0001219,53.2176,225.7637,101.7671,258.3458,9.7159e-05,1.259e-05,0.0,0 STARLINK-3791,1 52269U 22041J   23176.39165507  .00001259  00000-0  97159-4 0  9990,2 52269  53.2176 225.7637 0001219 101.7671 258.3458 15.08844291 66388,6917.867,95.437,540.576,538.889,0.0
52269.0,STARLINK-3791,PAYLOAD,2023-06-26 02:53:14,15.08828612,9.19e-05,53.2166,222.4931,91.1683,268.9415,-1.9506e-05,-5.98e-06,0.0,0 STARLINK-3791,1 52269U 22041J   23177.12030420 -.00000598  00000-0 -19506-4 0  9994,2 52269  53.2166 222.4931 0000919  91.1683 268.9415 15.08828612 66490,6917.915,95.438,540.416,539.144,0.0
52269.0,STARLINK-3791,PAYLOAD,2023-06-26 12:25:32,15.08837648,0.0001073,53.216,220.7086,90.1103,270.0012,9.4257e-05,1.213e-05,0.0,0 STARLINK-3791,1 52269U 22041J   23177.51774210  .00001213  00000-0  94257-4 0  9998,2 52269  53.2160 220.7086 0001073  90.1103 270.0012 15.08837648 66557,6917.888,95.438,540.495,539.01,0.0
52269.0,STARLINK-3791,PAYLOAD,2023-06-28 02:34:48,15.08844326,0.0001061,53.2154,213.5714,89.3838,270.7276,0.00022762,3.337e-05,0.0,0 STARLINK-3791,1 52269U 22041J   23179.10750194  .00003337  00000-0  22762-3 0  9990,2 52269  53.2154 213.5714 0001061  89.3838 270.7276 15.08844326 66796,6917.867,95.437,540.466,538.998,0.0
52269.0,STARLINK-3791,PAYLOAD,2023-06-29 02:25:35,15.08837037,0.0001092,53.2154,209.1102,92.7825,267.3292,-2.1431e-05,-6.29e-06,0.0,0 STARLINK-3791,1 52269U 22041J   23180.10110348 -.00000629  00000-0 -21431-4 0  9999,2 52269  53.2154 209.1102 0001092  92.7825 267.3292 15.08837037 66944,6917.889,95.438,540.51,538.999,0.0
52269.0,STARLINK-3791,PAYLOAD,2023-06-30 18:10:13,15.08837535,9.5e-05,53.2161,201.6771,81.9592,278.1507,6.3512e-05,7.23e-06,0.0,0 STARLINK-3791,1 52269U 22041J   23181.75710455  .00000723  00000-0  63512-4 0  9995,2 52269  53.2161 201.6771 0000950  81.9592 278.1507 15.08837535 67194,6917.888,95.438,540.41,539.096,0.0
52269.0,STARLINK-3791,PAYLOAD,2023-07-02 08:19:29,15.08841345,9.77e-05,53.2163,194.5405,82.5588,277.5515,4.854e-05,4.85e-06,0.0,0 STARLINK-3791,1 52269U 22041J   23183.34686490  .00000485  00000-0  48540-4 0  9992,2 52269  53.2163 194.5405 0000977  82.5588 277.5515 15.08841345 67434,6917.876,95.437,540.417,539.065,0.0
52269.0,STARLINK-3791,PAYLOAD,2023-07-03 09:45:39,15.08842299,0.0001011,53.2167,189.7827,82.917,277.1937,7.9621e-05,9.8e-06,0.0,0 STARLINK-3791,1 52269U 22041J   23184.40670343  .00000980  00000-0  79621-4 0  9994,2 52269  53.2167 189.7827 0001011  82.9170 277.1937 15.08842299 67593,6917.873,95.437,540.438,539.039,0.0
52269.0,STARLINK-3791,PAYLOAD,2023-07-04 23:54:54,15.08840205,0.0001051,53.2165,182.646,81.6348,278.4763,4.7058e-05,4.61e-06,0.0,0 STARLINK-3791,1 52269U 22041J   23185.99646474  .00000461  00000-0  47058-4 0  9990,2 52269  53.2165 182.6460 0001051  81.6348 278.4763 15.08840205 67836,6917.88,95.438,540.472,539.018,0.0
52269.0,STARLINK-3791,PAYLOAD,2023-07-06 09:18:00,15.08842551,0.0001035,53.2164,176.4012,84.0675,276.0435,6.2531e-05,7.08e-06,0.0,0 STARLINK-3791,1 52269U 22041J   23187.38750209  .00000708  00000-0  62531-4 0  9994,2 52269  53.2164 176.4012 0001035  84.0675 276.0435 15.08842551 68041,6917.873,95.437,540.454,539.022,0.0
52269.0,STARLINK-3791,PAYLOAD,2023-07-06 23:36:28,15.0883563,0.0001073,53.2167,173.7251,84.0529,276.0585,7.3333e-06,-1.71e-06,0.0,0 STARLINK-3791,1 52269U 22041J   23187.98366894 -.00000171  00000-0  73333-5 0  9991,2 52269  53.2167 173.7251 0001073  84.0529 276.0585 15.08835630 68135,6917.894,95.438,540.501,539.016,0.0
52269.0,STARLINK-3791,PAYLOAD,2023-07-08 08:59:34,15.08834198,0.0001131,53.2169,167.4806,85.4597,274.6525,0.00013565,1.871e-05,0.0,0 STARLINK-3791,1 52269U 22041J   23189.37470923  .00001871  00000-0  13565-3 0  9991,2 52269  53.2169 167.4806 0001131  85.4597 274.6525 15.08834198 68347,6917.898,95.438,540.546,538.981,0.0
52269.0,STARLINK-3791,PAYLOAD,2023-07-09 02:28:50,15.08830927,0.0001085,53.217,164.2092,85.7548,274.3568,-3.9024e-06,-3.5e-06,0.0,0 STARLINK-3791,1 52269U 22041J   23190.10335859 -.00000350  00000-0 -39024-5 0  9995,2 52269  53.2170 164.2092 0001085  85.7548 274.3568 15.08830927 68450,6917.908,95.438,540.524,539.023,0.0
52269.0,STARLINK-3791,PAYLOAD,2023-07-10 02:19:36,15.08838496,0.0001151,53.217,159.7494,91.9935,268.1189,6.9733e-05,8.22e-06,0.0,0 STARLINK-3791,1 52269U 22041J   23191.09695474  .00000822  00000-0  69733-4 0  9997,2 52269  53.2170 159.7494 0001151  91.9935 268.1189 15.08838496 68604,6917.885,95.438,540.546,538.954,0.0
52269.0,STARLINK-3791,PAYLOAD,2023-07-11 03:45:47,15.08837359,0.0001279,53.2172,154.9917,84.0795,276.0343,9.9956e-05,1.303e-05,0.0,0 STARLINK-3791,1 52269U 22041J   23192.15679724  .00001303  00000-0  99956-4 0  9990,2 52269  53.2172 154.9917 0001279  84.0795 276.0343 15.08837359 68765,6917.888,95.438,540.638,538.869,0.0
52269.0,STARLINK-3791,PAYLOAD,2023-07-12 03:36:33,15.08848999,0.0001162,53.2168,150.5318,92.5142,267.5983,6.7987e-05,7.95e-06,0.0,0 STARLINK-3791,1 52269U 22041J   23193.15039022  .00000795  00000-0  67987-4 0  9995,2 52269  53.2168 150.5318 0001162  92.5142 267.5983 15.08848999 68912,6917.853,95.437,540.522,538.914,0.0
52269.0,STARLINK-3791,PAYLOAD,2023-07-13 03:27:21,15.08841431,0.0001223,53.2177,146.0712,83.3819,276.7313,3.5692e-05,2.8e-06,0.0,0 STARLINK-3791,1 52269U 22041J   23194.14399625  .00000280  00000-0  35692-4 0  9990,2 52269  53.2177 146.0712 0001223  83.3819 276.7313 15.08841431 69067,6917.876,95.437,540.587,538.895,0.0
52269.0,STARLINK-3791,PAYLOAD,2023-07-14 06:28:54,15.08841062,0.0001268,53.2176,141.0144,96.5333,263.5803,4.6054e-05,4.45e-06,0.0,0 STARLINK-3791,1 52269U 22041J   23195.27007700  .00000445  00000-0  46054-4 0  9992,2 52269  53.2176 141.0144 0001268  96.5333 263.5803 15.08841062 69233,6917.877,95.437,540.619,538.865,0.0
52269.0,STARLINK-3791,PAYLOAD,2023-07-15 03:08:54,15.08849233,0.0001161,53.2171,137.1501,85.6909,274.4216,0.00014951,2.093e-05,0.0,0 STARLINK-3791,1 52269U 22041J   23196.13118935  .00002093  00000-0  14951-3 0  9992,2 52269  53.2171 137.1501 0001161  85.6909 274.4216 15.08849233 69362,6917.852,95.437,540.52,538.914,0.0
52269.0,STARLINK-3791,PAYLOAD,2023-07-15 19:02:47,15.08816309,0.0001182,53.217,134.1806,95.2549,264.8578,0.00034028,5.128e-05,0.0,0 STARLINK-3791,1 52269U 22041J   23196.79360142  .00005128  00000-0  34028-3 0  9992,2 52269  53.2170 134.1806 0001182  95.2549 264.8578 15.08816309 69469,6917.953,95.439,540.636,539.0,0.0
52269.0,STARLINK-3791,PAYLOAD,2023-07-16 04:35:05,15.08838077,0.00011,53.2173,132.3925,89.5673,270.5445,3.1187e-05,2.09e-06,0.0,0 STARLINK-3791,1 52269U 22041J   23197.19104089  .00000209  00000-0  31187-4 0  9992,2 52269  53.2173 132.3925 0001100  89.5673 270.5445 15.08838077 69528,6917.886,95.438,540.512,538.99,0.0
52269.0,STARLINK-3791,PAYLOAD,2023-07-17 12:22:48,15.08842503,0.0001288,53.2187,126.4461,94.4333,265.6806,-6.7627e-05,-1.364e-05,0.0,0 STARLINK-3791,1 52269U 22041J   23198.51584327 -.00001364  00000-0 -67627-4 0  9999,2 52269  53.2187 126.4461 0001288  94.4333 265.6806 15.08842503 69724,6917.873,95.437,540.629,538.847,0.0
52269.0,STARLINK-3791,PAYLOAD,2023-07-18 02:41:16,15.08846147,0.0001154,53.2177,123.7683,102.07,258.0421,0.00014383,2.002e-05,0.0,0 STARLINK-3791,1 52269U 22041J   23199.11199751  .00002002  00000-0  14383-3 0  9997,2 52269  53.2177 123.7683 0001154 102.0700 258.0421 15.08846147 69812,6917.862,95.437,540.525,538.928,0.0
